     2.100          NAVIGATION                              RINEX VERSION / TYPE
fic2rin                                 09/25/2015 00:06:05 PGM / RUN BY / DATE
                                                            END OF HEADER
 6 15  9 24 20  0  0.0  .643632374704D-04  .727595761418D-11  .000000000000D+00
     .470000000000D+02 -.111500000000D+03  .440839791318D-08 -.250281222749D+00
    -.563450157642D-05  .180040253326D-03  .111460685730D-04  .515355747032D+04
     .417600000000D+06  .186264514923D-08  .221659673207D+01  .558793544769D-08
     .962736650783D+00  .166375000000D+03  .276420370155D+01 -.799890461506D-08
    -.137862885400D-09  .100000000000D+01  .186300000000D+04  .000000000000D+00
     .240000000000D+01  .000000000000D+00  .419095158577D-08  .470000000000D+02
     .410406000000D+06  .400000000000D+01
 7 15  9 24 20  0  0.0  .484209507704D-03 -.682121026330D-12  .000000000000D+00
     .102000000000D+03 -.162500000000D+01  .403695386962D-08  .301099827557D+01
    -.165775418282D-06  .897618243471D-02  .123810023069D-04  .515370188904D+04
     .417600000000D+06 -.540167093277D-07 -.898250325080D+00 -.108033418655D-06
     .968955663293D+00  .143125000000D+03 -.269964332147D+01 -.768746307084D-08
    -.469305262734D-09  .100000000000D+01  .186300000000D+04  .000000000000D+00
     .240000000000D+01  .000000000000D+00 -.111758708954D-07  .102000000000D+03
     .410406000000D+06  .400000000000D+01
 8 15  9 24 20  0  0.0 -.642286613584D-05 -.136424205266D-11  .000000000000D+00
     .880000000000D+02 -.385312500000D+02  .492591947003D-08  .104074546414D+01
    -.203214585781D-05  .137959350832D-02  .265613198280D-05  .515357529259D+04
     .417600000000D+06 -.819563865662D-07  .116649647881D+01  .931322574615D-08
     .960272066843D+00  .324843750000D+03 -.178880165317D+01 -.863143096232D-08
    -.117862052285D-10  .100000000000D+01  .186300000000D+04  .000000000000D+00
     .340000000000D+01  .000000000000D+00  .745058059692D-08  .880000000000D+02
     .410406000000D+06  .400000000000D+01
 9 15  9 24 20  0  0.0 -.764057040215D-05  .238742359215D-11  .000000000000D+00
     .840000000000D+02 -.312500000000D+00  .513664253321D-08 -.121437608325D+01
    -.540167093277D-07  .358166289516D-03  .481680035591D-05  .515372036362D+04
     .417600000000D+06  .204890966415D-07 -.197577608058D+01  .167638063431D-07
     .956351959875D+00  .282656250000D+03  .263703460870D+01 -.846142388084D-08
    -.256796410887D-09  .100000000000D+01  .186300000000D+04  .000000000000D+00
     .240000000000D+01  .000000000000D+00  .931322574615D-09  .840000000000D+02
     .410406000000D+06  .400000000000D+01
11 15  9 24 20  0  0.0 -.606202054769D-03 -.227373675443D-11  .000000000000D+00
     .410000000000D+02 -.126968750000D+03  .602989402643D-08  .308366965133D+01
    -.670179724693D-05  .162797478260D-01  .748410820961D-05  .515363708878D+04
     .417600000000D+06  .298023223877D-06  .186558295537D+01 -.894069671631D-07
     .893990184748D+00  .194812500000D+03  .145874698822D+01 -.870786271743D-08
    -.265725354242D-09  .100000000000D+01  .186300000000D+04  .000000000000D+00
     .240000000000D+01  .000000000000D+00 -.121071934700D-07  .410000000000D+02
     .410406000000D+06  .400000000000D+01
12 15  9 24 20  0  0.0  .331062357873D-03  .341060513165D-11  .000000000000D+00
     .220000000000D+02  .940000000000D+02  .371944064392D-08  .252678462864D+01
     .488571822643D-05  .551039783750D-02  .834278762341D-05  .515360482216D+04
     .417600000000D+06 -.707805156708D-07  .172312373388D+00 -.819563865662D-07
     .990366115993D+00  .232031250000D+03  .647587381654D+00 -.775318009393D-08
     .431446542909D-09  .100000000000D+01  .186300000000D+04  .000000000000D+00
     .240000000000D+01  .000000000000D+00 -.125728547573D-07  .220000000000D+02
     .410406000000D+06  .400000000000D+01
13 15  9 24 20  0  0.0 -.151684042066D-03 -.295585778076D-11  .000000000000D+00
     .260000000000D+02 -.164062500000D+02  .465947980032D-08 -.242451265039D+01
    -.916421413422D-06  .468939275015D-02  .523775815964D-05  .515367568779D+04
     .417600000000D+06  .651925802231D-07 -.185875026775D+01  .819563865662D-07
     .972898719057D+00  .286843750000D+03  .207190905039D+01 -.814605360154D-08
    -.403231081907D-09  .100000000000D+01  .186300000000D+04  .000000000000D+00
     .240000000000D+01  .000000000000D+00 -.111758708954D-07  .260000000000D+02
     .410406000000D+06  .400000000000D+01
14 15  9 24 20  0  0.0  .324826687574D-04 -.261479726760D-11  .000000000000D+00
     .730000000000D+02 -.102812500000D+02  .494020577940D-08 -.499868549806D+00
    -.508502125740D-06  .846670451574D-02  .520423054695D-05  .515365155029D+04
     .417600000000D+06 -.875443220139D-07 -.189418734430D+01  .689178705215D-07
     .965406476278D+00  .283375000000D+03 -.195477158765D+01 -.852071206472D-08
    -.328585115460D-09  .100000000000D+01  .186300000000D+04  .000000000000D+00
     .240000000000D+01  .000000000000D+00 -.931322574615D-08  .730000000000D+02
     .410406000000D+06  .400000000000D+01
15 15  9 24 20  0  0.0 -.273345969617D-03 -.204636307899D-11  .000000000000D+00
     .280000000000D+02 -.112500000000D+01  .565452124779D-08 -.118363082343D+01
    -.614672899246D-07  .747203326318D-02  .407919287682D-05  .515371043777D+04
     .417600000000D+06  .163912773132D-06 -.202235477780D+01 -.987201929092D-07
     .932208612356D+00  .286250000000D+03  .406379115390D+00 -.871714881852D-08
    -.152506352502D-09  .100000000000D+01  .186300000000D+04  .000000000000D+00
     .240000000000D+01  .000000000000D+00 -.107102096081D-07  .280000000000D+02
     .410406000000D+06  .400000000000D+01
16 15  9 24 20  0  0.0 -.831782817841D-04  .386535248253D-11  .000000000000D+00
     .320000000000D+02  .869687500000D+02  .377444293498D-08  .513742695171D+00
     .466778874397D-05  .810183899011D-02  .737793743610D-05  .515362873459D+04
     .417600000000D+06  .132247805595D-06  .191013364290D+00  .195577740669D-06
     .990894570279D+00  .252437500000D+03  .321140088362D+00 -.792318717541D-08
     .395016454021D-09  .100000000000D+01  .186300000000D+04  .000000000000D+00
     .240000000000D+01  .000000000000D+00 -.102445483208D-07  .320000000000D+02
     .410406000000D+06  .400000000000D+01
17 15  9 24 20  0  0.0 -.188817270100D-03 -.136424205266D-11  .000000000000D+00
     .310000000000D+02 -.409375000000D+02  .478234206089D-08 -.469743736952D+00
    -.200420618057D-05  .104127214290D-01  .291503965855D-05  .515356826973D+04
     .417600000000D+06 -.689178705215D-07  .121573170507D+01  .169500708580D-06
     .973411745409D+00  .334062500000D+03 -.200830532511D+01 -.865428905731D-08
    -.100004165575D-10  .100000000000D+01  .186300000000D+04  .000000000000D+00
     .240000000000D+01  .000000000000D+00 -.107102096081D-07  .310000000000D+02
     .410406000000D+06  .400000000000D+01
19 15  9 24 20  0  0.0 -.520581379533D-03 -.568434188608D-12  .000000000000D+00
     .310000000000D+02 -.598125000000D+02  .463983612494D-08 -.185249230943D+01
    -.330805778503D-05  .113493412500D-01  .292807817459D-05  .515514043808D+04
     .417600000000D+06  .931322574615D-07  .126500981676D+01 -.670552253723D-07
     .970463501734D+00  .321406250000D+03  .652444803642D+00 -.835963392659D-08
     .414302971667D-10  .100000000000D+01  .186300000000D+04  .000000000000D+00
     .240000000000D+01  .000000000000D+00 -.149011611938D-07  .310000000000D+02
     .410406000000D+06  .400000000000D+01
20 15  9 24 20  0  0.0  .357922632247D-03  .306954461848D-11  .000000000000D+00
     .610000000000D+02  .411562500000D+02  .533665086436D-08 -.112511264319D+01
     .225193798542D-05  .489887350705D-02  .100992619991D-04  .515364798927D+04
     .417600000000D+06 -.204890966415D-07 -.309412688674D+01  .763684511185D-07
     .926700665808D+00  .166875000000D+03  .122942428328D+01 -.841642200633D-08
     .405731186047D-09  .100000000000D+01  .186300000000D+04  .000000000000D+00
     .240000000000D+01  .000000000000D+00 -.838190317154D-08  .610000000000D+02
     .410406000000D+06  .400000000000D+01
21 15  9 24 20  0  0.0 -.482094474137D-03 -.272848410532D-11  .000000000000D+00
     .730000000000D+02 -.987500000000D+02  .492949104737D-08  .204807111335D+01
    -.535883009434D-05  .225773140555D-01  .982545316219D-05  .515376306534D+04
     .417600000000D+06  .130385160446D-06  .219863315867D+01 -.510364770889D-06
     .934640181161D+00  .178781250000D+03 -.187681033815D+01 -.806497879588D-08
    -.907180644858D-10  .100000000000D+01  .186300000000D+04  .000000000000D+00
     .340000000000D+01  .000000000000D+00 -.116415321827D-07  .730000000000D+02
     .410406000000D+06  .400000000000D+01
22 15  9 24 20  0  0.0  .394526403397D-03  .386535248253D-11  .000000000000D+00
     .900000000000D+01  .483437500000D+02  .564666377764D-08  .596940116152D+00
     .263936817646D-05  .801252608653D-02  .960379838943D-05  .515368273354D+04
     .417600000000D+06 -.651925802231D-07 -.304104233242D+01  .763684511185D-07
     .923302707950D+00  .176281250000D+03 -.204199305593D+01 -.873464954750D-08
     .361086469272D-09  .100000000000D+01  .186300000000D+04  .000000000000D+00
     .240000000000D+01  .000000000000D+00 -.176951289177D-07  .900000000000D+01
     .410406000000D+06  .400000000000D+01
23 15  9 24 20  0  0.0 -.135103706270D-03 -.216004991671D-11  .000000000000D+00
     .280000000000D+02 -.462500000000D+01  .525200448135D-08 -.163005407503D+01
    -.353902578354D-06  .103906241711D-01  .477023422718D-05  .515378859901D+04
     .417600000000D+06  .875443220139D-07 -.196828103485D+01 -.109896063805D-06
     .947344157372D+00  .278250000000D+03 -.262789475882D+01 -.843570852398D-08
    -.158578033983D-09  .100000000000D+01  .186300000000D+04  .000000000000D+00
     .240000000000D+01  .000000000000D+00 -.200234353542D-07  .280000000000D+02
     .410406000000D+06  .400000000000D+01
